start=new Date('2022-01-21T00:00:00.000Z').valueOf();
sats=[{"GP_ID":"194262172","BSTAR":"0.00030418000000","MEAN_MOTION_DOT":"0.00004251","MEAN_MOTION":"15.06392553","TLE_LINE1":"1 48588U 21041AM  22020.52982934  .00004251  00000-0  30418-3 0  9990","MEAN_ELEMENT_THEORY":"SGP4","TLE_LINE2":"2 48588  53.0546  66.5078 0001267  85.1288 274.9846 15.06392553 37737","CLASSIFICATION_TYPE":"U","INCLINATION":"53.0546","SITE":"AFETR","PERIAPSIS":"546.359","PERIOD":"95.593","TIME_SYSTEM":"UTC","SEMIMAJOR_AXIS":"6925.371","COUNTRY_CODE":"US","RA_OF_ASC_NODE":"66.5078","OBJECT_TYPE":"PAYLOAD","REV_AT_EPOCH":"3773","FILE":"3278533","LAUNCH_DATE":"2021-05-15","ARG_OF_PERICENTER":"85.1288","RCS_SIZE":"LARGE","CENTER_NAME":"EARTH","OBJECT_NAME":"STARLINK-2244","EPHEMERIS_TYPE":"0","MEAN_ANOMALY":"274.9846","REF_FRAME":"TEME","OBJECT_ID":"2021-041AM","MEAN_MOTION_DDOT":"0.0000000000000","ELEMENT_SET_NO":"999","NORAD_CAT_ID":"48588","ECCENTRICITY":"0.00012670","DECAY_DATE":null,"EPOCH":"2022-01-20T12:42:57.254976","APOAPSIS":"548.114"},{"PERIOD":"95.592","TIME_SYSTEM":"UTC","SEMIMAJOR_AXIS":"6925.347","COUNTRY_CODE":"US","OBJECT_TYPE":"PAYLOAD","RA_OF_ASC_NODE":"67.1154","REV_AT_EPOCH":"3771","FILE":"3278533","LAUNCH_DATE":"2021-05-15","RCS_SIZE":"LARGE","ARG_OF_PERICENTER":"88.0487","CENTER_NAME":"EARTH","GP_ID":"194262927","BSTAR":"0.00028993000000","MEAN_MOTION_DOT":"0.00004040","MEAN_MOTION":"15.06400633","TLE_LINE1":"1 48589U 21041AN  22020.39343645  .00004040  00000-0  28993-3 0  9997","TLE_LINE2":"2 48589  53.0553  67.1154 0001443  88.0487 272.0667 15.06400633 37714","MEAN_ELEMENT_THEORY":"SGP4","CLASSIFICATION_TYPE":"U","SITE":"AFETR","INCLINATION":"53.0553","PERIAPSIS":"546.212","NORAD_CAT_ID":"48589","ECCENTRICITY":"0.00014430","DECAY_DATE":null,"EPOCH":"2022-01-20T09:26:32.909280","APOAPSIS":"548.211","OBJECT_NAME":"STARLINK-2245","EPHEMERIS_TYPE":"0","MEAN_ANOMALY":"272.0667","REF_FRAME":"TEME","OBJECT_ID":"2021-041AN","MEAN_MOTION_DDOT":"0.0000000000000","ELEMENT_SET_NO":"999"},{"APOAPSIS":"548.076","NORAD_CAT_ID":"48590","ECCENTRICITY":"0.00012750","DECAY_DATE":null,"EPOCH":"2022-01-20T11:37:54.059808","OBJECT_ID":"2021-041AP","MEAN_MOTION_DDOT":"0.0000000000000","ELEMENT_SET_NO":"999","MEAN_ANOMALY":"280.4870","REF_FRAME":"TEME","OBJECT_NAME":"STARLINK-2246","EPHEMERIS_TYPE":"0","LAUNCH_DATE":"2021-05-15","RCS_SIZE":"LARGE","ARG_OF_PERICENTER":"79.6263","CENTER_NAME":"EARTH","OBJECT_TYPE":"PAYLOAD","RA_OF_ASC_NODE":"76.7050","REV_AT_EPOCH":"3758","FILE":"3278533","SEMIMAJOR_AXIS":"6925.328","COUNTRY_CODE":"US","PERIOD":"95.592","TIME_SYSTEM":"UTC","TLE_LINE2":"2 48590  53.0549  76.7050 0001275  79.6263 280.4870 15.06406858 37582","MEAN_ELEMENT_THEORY":"SGP4","CLASSIFICATION_TYPE":"U","SITE":"AFETR","INCLINATION":"53.0549","PERIAPSIS":"546.310","MEAN_MOTION":"15.06406858","TLE_LINE1":"1 48590U 21041AP  22020.48465347  .00003471  00000-0  25175-3 0  9999","MEAN_MOTION_DOT":"0.00003471","GP_ID":"194263179","BSTAR":"0.00025175000000"},{"TLE_LINE2":"2 48591  53.0597  66.8241 0001465  84.3920 275.7236 15.06400219 38626","MEAN_ELEMENT_THEORY":"SGP4","CLASSIFICATION_TYPE":"U","PERIAPSIS":"546.198","INCLINATION":"53.0597","SITE":"AFETR","MEAN_MOTION":"15.06400219","TLE_LINE1":"1 48591U 21041AQ  22020.44409405  .00001810  00000-0  14039-3 0  9991","MEAN_MOTION_DOT":"0.00001810","GP_ID":"194261426","BSTAR":"0.00014039000000","RCS_SIZE":"LARGE","ARG_OF_PERICENTER":"84.3920","LAUNCH_DATE":"2021-05-15","CENTER_NAME":"EARTH","RA_OF_ASC_NODE":"66.8241","OBJECT_TYPE":"PAYLOAD","FILE":"3278533","REV_AT_EPOCH":"3862","SEMIMAJOR_AXIS":"6925.348","COUNTRY_CODE":"US","TIME_SYSTEM":"UTC","PERIOD":"95.592","MEAN_MOTION_DDOT":"0.0000000000000","OBJECT_ID":"2021-041AQ","ELEMENT_SET_NO":"999","REF_FRAME":"TEME","MEAN_ANOMALY":"275.7236","OBJECT_NAME":"STARLINK-2248","EPHEMERIS_TYPE":"0","APOAPSIS":"548.227","ECCENTRICITY":"0.00014650","NORAD_CAT_ID":"48591","EPOCH":"2022-01-20T10:39:29.725920","DECAY_DATE":null},{"APOAPSIS":"548.119","ECCENTRICITY":"0.00012610","NORAD_CAT_ID":"48592","EPOCH":"2022-01-20T12:25:41.211840","DECAY_DATE":null,"OBJECT_NAME":"STARLINK-2249","EPHEMERIS_TYPE":"0","MEAN_MOTION_DDOT":"0.0000000000000","OBJECT_ID":"2021-041AR","ELEMENT_SET_NO":"999","REF_FRAME":"TEME","MEAN_ANOMALY":"270.7077","SEMIMAJOR_AXIS":"6925.381","COUNTRY_CODE":"US","TIME_SYSTEM":"UTC","PERIOD":"95.593","RCS_SIZE":"LARGE","ARG_OF_PERICENTER":"89.4056","LAUNCH_DATE":"2021-05-15","CENTER_NAME":"EARTH","RA_OF_ASC_NODE":"76.5673","OBJECT_TYPE":"PAYLOAD","FILE":"3278533","REV_AT_EPOCH":"3759","MEAN_MOTION_DOT":"0.00000420","GP_ID":"194261672","BSTAR":"0.00004708700000","TLE_LINE2":"2 48592  53.0544  76.5673 0001261  89.4056 270.7077 15.06389524 37594","CLASSIFICATION_TYPE":"U","MEAN_ELEMENT_THEORY":"SGP4","PERIAPSIS":"546.372","INCLINATION":"53.0544","SITE":"AFETR","MEAN_MOTION":"15.06389524","TLE_LINE1":"1 48592U 21041AR  22020.51783810  .00000420  00000-0  47087-4 0  9991"},{"NORAD_CAT_ID":"48593","ECCENTRICITY":"0.00013780","DECAY_DATE":null,"EPOCH":"2022-01-20T15:47:22.468416","APOAPSIS":"548.185","MEAN_ANOMALY":"283.0347","REF_FRAME":"TEME","OBJECT_ID":"2021-041AS","MEAN_MOTION_DDOT":"0.0000000000000","ELEMENT_SET_NO":"999","OBJECT_NAME":"STARLINK-2250","EPHEMERIS_TYPE":"0","RA_OF_ASC_NODE":"75.9283","OBJECT_TYPE":"PAYLOAD","REV_AT_EPOCH":"3791","FILE":"3278703","LAUNCH_DATE":"2021-05-15","ARG_OF_PERICENTER":"77.0796","RCS_SIZE":"LARGE","CENTER_NAME":"EARTH","PERIOD":"95.592","TIME_SYSTEM":"UTC","SEMIMAJOR_AXIS":"6925.366","COUNTRY_CODE":"US","MEAN_MOTION":"15.06394404","TLE_LINE1":"1 48593U 21041AS  22020.65789894 -.00000896  00000-0 -41264-4 0  9995","MEAN_ELEMENT_THEORY":"SGP4","TLE_LINE2":"2 48593  53.0547  75.9283 0001378  77.0796 283.0347 15.06394404 37917","CLASSIFICATION_TYPE":"U","SITE":"AFETR","INCLINATION":"53.0547","PERIAPSIS":"546.276","GP_ID":"194268274","BSTAR":"-0.00004126400000","MEAN_MOTION_DOT":"-0.00000896"},{"NORAD_CAT_ID":"48594","ECCENTRICITY":"0.00013120","DECAY_DATE":null,"EPOCH":"2022-01-20T14:00:01.000224","APOAPSIS":"550.552","MEAN_ANOMALY":"291.7766","REF_FRAME":"TEME","OBJECT_ID":"2021-041AT","MEAN_MOTION_DDOT":"0.0000000000000","ELEMENT_SET_NO":"999","OBJECT_NAME":"STARLINK-2251","EPHEMERIS_TYPE":"0","RA_OF_ASC_NODE":"45.9172","OBJECT_TYPE":"PAYLOAD","REV_AT_EPOCH":"359","FILE":"3278533","LAUNCH_DATE":"2021-05-15","RCS_SIZE":"LARGE","ARG_OF_PERICENTER":"86.4143","CENTER_NAME":"EARTH","PERIOD":"95.642","TIME_SYSTEM":"UTC","SEMIMAJOR_AXIS":"6927.778","COUNTRY_CODE":"US","MEAN_MOTION":"15.05607578","TLE_LINE1":"1 48594U 21041AT  22020.58334491 -.00027054  00000-0 -18434-2 0  9993","CLASSIFICATION_TYPE":"U","TLE_LINE2":"2 48594  53.0538  45.9172 0001312  86.4143 291.7766 15.05607578  3596","MEAN_ELEMENT_THEORY":"SGP4","SITE":"AFETR","INCLINATION":"53.0538","PERIAPSIS":"548.734","BSTAR":"-0.00184340000000","GP_ID":"194262679","MEAN_MOTION_DOT":"-0.00027054"},{"ELEMENT_SET_NO":"999","OBJECT_ID":"2021-041AU","MEAN_MOTION_DDOT":"0.0000000000000","MEAN_ANOMALY":"276.9037","REF_FRAME":"TEME","EPHEMERIS_TYPE":"0","OBJECT_NAME":"STARLINK-2252","APOAPSIS":"548.120","DECAY_DATE":null,"EPOCH":"2022-01-20T12:09:45.530208","NORAD_CAT_ID":"48595","ECCENTRICITY":"0.00013020","INCLINATION":"53.0554","SITE":"AFETR","PERIAPSIS":"546.317","CLASSIFICATION_TYPE":"U","TLE_LINE2":"2 48595  53.0554  76.6104 0001302  83.2100 276.9037 15.06398449 38867","MEAN_ELEMENT_THEORY":"SGP4","TLE_LINE1":"1 48595U 21041AU  22020.50677697  .00002166  00000-0  16425-3 0  9998","MEAN_MOTION":"15.06398449","MEAN_MOTION_DOT":"0.00002166","BSTAR":"0.00016425000000","GP_ID":"194261927","CENTER_NAME":"EARTH","LAUNCH_DATE":"2021-05-15","ARG_OF_PERICENTER":"83.2100","RCS_SIZE":"LARGE","REV_AT_EPOCH":"3886","FILE":"3278533","RA_OF_ASC_NODE":"76.6104","OBJECT_TYPE":"PAYLOAD","COUNTRY_CODE":"US","SEMIMAJOR_AXIS":"6925.353","PERIOD":"95.592","TIME_SYSTEM":"UTC"},{"TLE_LINE2":"2 48596  53.0547  76.5080 0001279  78.7975 281.3158 15.06406465 38057","MEAN_ELEMENT_THEORY":"SGP4","CLASSIFICATION_TYPE":"U","PERIAPSIS":"546.308","INCLINATION":"53.0547","SITE":"AFETR","MEAN_MOTION":"15.06406465","TLE_LINE1":"1 48596U 21041AV  22020.52890461  .00006712  00000-0  46899-3 0  9996","MEAN_MOTION_DOT":"0.00006712","BSTAR":"0.00046899000000","GP_ID":"194262173","RCS_SIZE":"LARGE","ARG_OF_PERICENTER":"78.7975","LAUNCH_DATE":"2021-05-15","CENTER_NAME":"EARTH","RA_OF_ASC_NODE":"76.5080","OBJECT_TYPE":"PAYLOAD","FILE":"3278533","REV_AT_EPOCH":"3805","SEMIMAJOR_AXIS":"6925.329","COUNTRY_CODE":"US","TIME_SYSTEM":"UTC","PERIOD":"95.592","MEAN_MOTION_DDOT":"0.0000000000000","OBJECT_ID":"2021-041AV","ELEMENT_SET_NO":"999","REF_FRAME":"TEME","MEAN_ANOMALY":"281.3158","OBJECT_NAME":"STARLINK-2253","EPHEMERIS_TYPE":"0","APOAPSIS":"548.079","ECCENTRICITY":"0.00012790","NORAD_CAT_ID":"48596","EPOCH":"2022-01-20T12:41:37.358304","DECAY_DATE":null},{"MEAN_MOTION_DOT":"0.00005897","GP_ID":"194262928","BSTAR":"0.00041443000000","PERIAPSIS":"546.252","INCLINATION":"53.0544","SITE":"AFETR","CLASSIFICATION_TYPE":"U","TLE_LINE2":"2 48597  53.0544  76.7825 0001384  86.3084 273.8063 15.06401124 38853","MEAN_ELEMENT_THEORY":"SGP4","TLE_LINE1":"1 48597U 21041AW  22020.46992518  .00005897  00000-0  41443-3 0  9999","MEAN_MOTION":"15.06401124","COUNTRY_CODE":"US","SEMIMAJOR_AXIS":"6925.345","TIME_SYSTEM":"UTC","PERIOD":"95.592","CENTER_NAME":"EARTH","RCS_SIZE":"LARGE","ARG_OF_PERICENTER":"86.3084","LAUNCH_DATE":"2021-05-15","FILE":"3278533","REV_AT_EPOCH":"3885","OBJECT_TYPE":"PAYLOAD","RA_OF_ASC_NODE":"76.7825","EPHEMERIS_TYPE":"0","OBJECT_NAME":"STARLINK-2255","ELEMENT_SET_NO":"999","MEAN_MOTION_DDOT":"0.0000000000000","OBJECT_ID":"2021-041AW","REF_FRAME":"TEME","MEAN_ANOMALY":"273.8063","APOAPSIS":"548.169","EPOCH":"2022-01-20T11:16:41.535552","DECAY_DATE":null,"ECCENTRICITY":"0.00013840","NORAD_CAT_ID":"48597"}];
